[{"OBJECT_NAME":"STARLINK-30587","OBJECT_ID":"2023-158P","EPOCH":"2026-03-09T07:13:29.484480","MEAN_MOTION":15.27574217,"ECCENTRICITY":6.019e-5,"INCLINATION":43.0018,"RA_OF_ASC_NODE":28.9739,"ARG_OF_PERICENTER":248.2476,"MEAN_ANOMALY":111.8312,"EPHEMERIS_TYPE":0,"CLASSIFICATION_TYPE":"U","NORAD_CAT_ID":58064,"ELEMENT_SET_NO":999,"REV_AT_EPOCH":13351,"BSTAR":-2.8926457e-5,"MEAN_MOTION_DOT":-1.058e-5,"MEAN_MOTION_DDOT":0},{"OBJECT_NAME":"ELECTRON KICK STAGE R\/B","OBJECT_ID":"2024-114G","EPOCH":"2026-03-09T16:42:35.427168","MEAN_MOTION":15.12630878,"ECCENTRICITY":0.00674954,"INCLINATION":97.9507,"RA_OF_ASC_NODE":118.387,"ARG_OF_PERICENTER":79.3604,"MEAN_ANOMALY":281.5218,"EPHEMERIS_TYPE":0,"CLASSIFICATION_TYPE":"U","NORAD_CAT_ID":60085,"ELEMENT_SET_NO":999,"REV_AT_EPOCH":9434,"BSTAR":0.00053349816,"MEAN_MOTION_DOT":9.787e-5,"MEAN_MOTION_DDOT":0}]
